start=new Date('2023-03-22T00:00:00.000Z').valueOf();
sats=[{"GP_ID":"228591443","REV_AT_EPOCH":"3114","TIME_SYSTEM":"UTC","OBJECT_NAME":"STARLINK-4711","RA_OF_ASC_NODE":"72.0164","BSTAR":"0.00018316000000","PERIAPSIS":"538.883","EPOCH":"2023-03-21T05:36:19.971072","MEAN_ELEMENT_THEORY":"SGP4","TLE_LINE1":"1 53701U 22107B   23080.23356448  .00002628  00000-0  18316-3 0  9996","MEAN_ANOMALY":"272.3884","CLASSIFICATION_TYPE":"U","DECAY_DATE":null,"ARG_OF_PERICENTER":"87.7250","APOAPSIS":"540.602","NORAD_CAT_ID":"53701","PERIOD":"95.437","EPHEMERIS_TYPE":"0","REF_FRAME":"TEME","MEAN_MOTION_DOT":"0.00002628","FILE":"3866730","TLE_LINE2":"2 53701  53.2172  72.0164 0001242  87.7250 272.3884 15.08840916 31141","INCLINATION":"53.2172","OBJECT_ID":"2022-107B","SITE":"AFETR","SEMIMAJOR_AXIS":"6917.878","LAUNCH_DATE":"2022-09-05","RCS_SIZE":"LARGE","MEAN_MOTION":"15.08840916","COUNTRY_CODE":"US","CENTER_NAME":"EARTH","OBJECT_TYPE":"PAYLOAD","ECCENTRICITY":"0.00012420","ELEMENT_SET_NO":"999","MEAN_MOTION_DDOT":"0.0000000000000"},{"TLE_LINE2":"2 53702  53.2201  56.9195 0001399  86.1406 273.9746 15.08843561 31399","FILE":"3866730","MEAN_MOTION_DOT":"0.00001155","REF_FRAME":"TEME","EPHEMERIS_TYPE":"0","PERIOD":"95.437","NORAD_CAT_ID":"53702","ARG_OF_PERICENTER":"86.1406","APOAPSIS":"540.702","DECAY_DATE":null,"MEAN_ANOMALY":"273.9746","CLASSIFICATION_TYPE":"U","TLE_LINE1":"1 53702U 22107C   23080.32514440  .00001155  00000-0  90626-4 0  9994","MEAN_ELEMENT_THEORY":"SGP4","EPOCH":"2023-03-21T07:48:12.476160","PERIAPSIS":"538.767","RA_OF_ASC_NODE":"56.9195","BSTAR":"0.00009062600000","OBJECT_NAME":"STARLINK-4724","TIME_SYSTEM":"UTC","REV_AT_EPOCH":"3139","GP_ID":"228592193","MEAN_MOTION_DDOT":"0.0000000000000","ELEMENT_SET_NO":"999","ECCENTRICITY":"0.00013990","OBJECT_TYPE":"PAYLOAD","CENTER_NAME":"EARTH","COUNTRY_CODE":"US","MEAN_MOTION":"15.08843561","RCS_SIZE":"LARGE","SEMIMAJOR_AXIS":"6917.870","LAUNCH_DATE":"2022-09-05","SITE":"AFETR","INCLINATION":"53.2201","OBJECT_ID":"2022-107C"},{"DECAY_DATE":null,"CLASSIFICATION_TYPE":"U","MEAN_ANOMALY":"267.1833","APOAPSIS":"540.626","ARG_OF_PERICENTER":"92.9309","NORAD_CAT_ID":"53703","PERIOD":"95.437","EPHEMERIS_TYPE":"0","REF_FRAME":"TEME","MEAN_MOTION_DOT":"0.00001953","TLE_LINE2":"2 53703  53.2170  71.5204 0001309  92.9309 267.1833 15.08848112 31161","FILE":"3866730","REV_AT_EPOCH":"3116","GP_ID":"228590941","TIME_SYSTEM":"UTC","OBJECT_NAME":"STARLINK-4731","RA_OF_ASC_NODE":"71.5204","BSTAR":"0.00014075000000","PERIAPSIS":"538.815","EPOCH":"2023-03-21T09:09:42.267744","MEAN_ELEMENT_THEORY":"SGP4","TLE_LINE1":"1 53703U 22107D   23080.38173921  .00001953  00000-0  14075-3 0  9995","CENTER_NAME":"EARTH","OBJECT_TYPE":"PAYLOAD","ECCENTRICITY":"0.00013090","ELEMENT_SET_NO":"999","MEAN_MOTION_DDOT":"0.0000000000000","OBJECT_ID":"2022-107D","INCLINATION":"53.2170","SITE":"AFETR","RCS_SIZE":"LARGE","LAUNCH_DATE":"2022-09-05","SEMIMAJOR_AXIS":"6917.856","MEAN_MOTION":"15.08848112","COUNTRY_CODE":"US"},{"SITE":"AFETR","INCLINATION":"53.2188","OBJECT_ID":"2022-107E","MEAN_MOTION":"15.08838722","LAUNCH_DATE":"2022-09-05","SEMIMAJOR_AXIS":"6917.884","RCS_SIZE":"LARGE","COUNTRY_CODE":"US","OBJECT_TYPE":"PAYLOAD","CENTER_NAME":"EARTH","ECCENTRICITY":"0.00011400","MEAN_MOTION_DDOT":"0.0000000000000","ELEMENT_SET_NO":"999","GP_ID":"228622947","REV_AT_EPOCH":"3104","OBJECT_NAME":"STARLINK-4714","TIME_SYSTEM":"UTC","EPOCH":"2023-03-21T16:38:50.915904","PERIAPSIS":"538.961","BSTAR":"0.00008394400000","RA_OF_ASC_NODE":"70.6178","TLE_LINE1":"1 53704U 22107E   23080.69364486  .00001048  00000-0  83944-4 0  9995","MEAN_ELEMENT_THEORY":"SGP4","CLASSIFICATION_TYPE":"U","MEAN_ANOMALY":"266.8342","DECAY_DATE":null,"NORAD_CAT_ID":"53704","ARG_OF_PERICENTER":"93.2781","APOAPSIS":"540.538","PERIOD":"95.438","EPHEMERIS_TYPE":"0","FILE":"3866953","TLE_LINE2":"2 53704  53.2188  70.6178 0001140  93.2781 266.8342 15.08838722 31046","REF_FRAME":"TEME","MEAN_MOTION_DOT":"0.00001048"},{"ECCENTRICITY":"0.00013360","MEAN_MOTION_DDOT":"0.0000000000000","ELEMENT_SET_NO":"999","OBJECT_TYPE":"PAYLOAD","CENTER_NAME":"EARTH","MEAN_MOTION":"15.08845783","LAUNCH_DATE":"2022-09-05","SEMIMAJOR_AXIS":"6917.863","RCS_SIZE":"LARGE","COUNTRY_CODE":"US","SITE":"AFETR","OBJECT_ID":"2022-107F","INCLINATION":"53.2183","EPHEMERIS_TYPE":"0","PERIOD":"95.437","FILE":"3866730","TLE_LINE2":"2 53705  53.2183  72.3823 0001336  84.7203 275.3942 15.08845783 31146","MEAN_MOTION_DOT":"0.00002424","REF_FRAME":"TEME","MEAN_ANOMALY":"275.3942","CLASSIFICATION_TYPE":"U","DECAY_DATE":null,"NORAD_CAT_ID":"53705","ARG_OF_PERICENTER":"84.7203","APOAPSIS":"540.652","PERIAPSIS":"538.803","EPOCH":"2023-03-21T07:01:13.505952","RA_OF_ASC_NODE":"72.3823","BSTAR":"0.00017031000000","TLE_LINE1":"1 53705U 22107F   23080.29251743  .00002424  00000-0  17031-3 0  9995","MEAN_ELEMENT_THEORY":"SGP4","GP_ID":"228591943","REV_AT_EPOCH":"3114","TIME_SYSTEM":"UTC","OBJECT_NAME":"STARLINK-4717"},{"OBJECT_NAME":"STARLINK-4716","TIME_SYSTEM":"UTC","REV_AT_EPOCH":"3040","GP_ID":"228595782","MEAN_ELEMENT_THEORY":"SGP4","TLE_LINE1":"1 53706U 22107G   23080.34866101  .00005146  00000-0  34112-3 0  9995","BSTAR":"0.00034112000000","RA_OF_ASC_NODE":"72.0219","EPOCH":"2023-03-21T08:22:04.311264","PERIAPSIS":"538.983","ARG_OF_PERICENTER":"98.7986","APOAPSIS":"540.459","NORAD_CAT_ID":"53706","DECAY_DATE":null,"MEAN_ANOMALY":"261.3127","CLASSIFICATION_TYPE":"U","MEAN_MOTION_DOT":"0.00005146","REF_FRAME":"TEME","TLE_LINE2":"2 53706  53.2170  72.0219 0001067  98.7986 261.3127 15.08847915 30400","FILE":"3866888","PERIOD":"95.437","EPHEMERIS_TYPE":"0","INCLINATION":"53.2170","OBJECT_ID":"2022-107G","SITE":"AFETR","COUNTRY_CODE":"US","RCS_SIZE":"LARGE","SEMIMAJOR_AXIS":"6917.856","LAUNCH_DATE":"2022-09-05","MEAN_MOTION":"15.08847915","CENTER_NAME":"EARTH","OBJECT_TYPE":"PAYLOAD","ELEMENT_SET_NO":"999","MEAN_MOTION_DDOT":"0.0000000000000","ECCENTRICITY":"0.00010670"},{"RA_OF_ASC_NODE":"57.5798","BSTAR":"0.00000562930000","EPOCH":"2023-03-21T04:53:20.527584","PERIAPSIS":"538.813","MEAN_ELEMENT_THEORY":"SGP4","TLE_LINE1":"1 53707U 22107H   23080.20370981 -.00000198  00000-0  56293-5 0  9996","REV_AT_EPOCH":"3059","GP_ID":"228596137","OBJECT_NAME":"STARLINK-4667","TIME_SYSTEM":"UTC","EPHEMERIS_TYPE":"0","PERIOD":"95.437","REF_FRAME":"TEME","MEAN_MOTION_DOT":"-0.00000198","TLE_LINE2":"2 53707  53.2183  57.5798 0001315  91.9257 268.1886 15.08847526 30592","FILE":"3866888","DECAY_DATE":null,"MEAN_ANOMALY":"268.1886","CLASSIFICATION_TYPE":"U","APOAPSIS":"540.632","ARG_OF_PERICENTER":"91.9257","NORAD_CAT_ID":"53707","RCS_SIZE":"LARGE","LAUNCH_DATE":"2022-09-05","SEMIMAJOR_AXIS":"6917.857","MEAN_MOTION":"15.08847526","COUNTRY_CODE":"US","OBJECT_ID":"2022-107H","INCLINATION":"53.2183","SITE":"AFETR","ECCENTRICITY":"0.00013150","ELEMENT_SET_NO":"999","MEAN_MOTION_DDOT":"0.0000000000000","CENTER_NAME":"EARTH","OBJECT_TYPE":"PAYLOAD"},{"TLE_LINE2":"2 53708  53.2188  57.4712 0001425  98.1873 261.9281 15.08842739 31354","FILE":"3866730","MEAN_MOTION_DOT":"0.00012224","REF_FRAME":"TEME","EPHEMERIS_TYPE":"0","PERIOD":"95.437","NORAD_CAT_ID":"53708","ARG_OF_PERICENTER":"98.1873","APOAPSIS":"540.723","DECAY_DATE":null,"CLASSIFICATION_TYPE":"U","MEAN_ANOMALY":"261.9281","TLE_LINE1":"1 53708U 22107J   23080.30039223  .00012224  00000-0  78474-3 0  9994","MEAN_ELEMENT_THEORY":"SGP4","PERIAPSIS":"538.751","EPOCH":"2023-03-21T07:12:33.888672","BSTAR":"0.00078474000000","RA_OF_ASC_NODE":"57.4712","OBJECT_NAME":"STARLINK-4694","TIME_SYSTEM":"UTC","REV_AT_EPOCH":"3135","GP_ID":"228590692","MEAN_MOTION_DDOT":"0.0000000000000","ELEMENT_SET_NO":"999","ECCENTRICITY":"0.00014250","OBJECT_TYPE":"PAYLOAD","CENTER_NAME":"EARTH","COUNTRY_CODE":"US","MEAN_MOTION":"15.08842739","RCS_SIZE":"LARGE","LAUNCH_DATE":"2022-09-05","SEMIMAJOR_AXIS":"6917.872","SITE":"AFETR","OBJECT_ID":"2022-107J","INCLINATION":"53.2188"},{"OBJECT_ID":"2022-107K","INCLINATION":"53.2168","SITE":"AFETR","COUNTRY_CODE":"US","LAUNCH_DATE":"2022-09-05","SEMIMAJOR_AXIS":"6917.866","RCS_SIZE":"LARGE","MEAN_MOTION":"15.08844593","CENTER_NAME":"EARTH","OBJECT_TYPE":"PAYLOAD","ELEMENT_SET_NO":"999","MEAN_MOTION_DDOT":"0.0000000000000","ECCENTRICITY":"0.00012950","OBJECT_NAME":"STARLINK-4685","TIME_SYSTEM":"UTC","GP_ID":"228591444","REV_AT_EPOCH":"3077","MEAN_ELEMENT_THEORY":"SGP4","TLE_LINE1":"1 53709U 22107K   23080.30855668  .00002666  00000-0  18550-3 0  9992","RA_OF_ASC_NODE":"76.7894","BSTAR":"0.00018550000000","PERIAPSIS":"538.835","EPOCH":"2023-03-21T07:24:19.297152","ARG_OF_PERICENTER":"100.4046","APOAPSIS":"540.627","NORAD_CAT_ID":"53709","MEAN_ANOMALY":"259.7093","CLASSIFICATION_TYPE":"U","DECAY_DATE":null,"REF_FRAME":"TEME","MEAN_MOTION_DOT":"0.00002666","FILE":"3866730","TLE_LINE2":"2 53709  53.2168  76.7894 0001295 100.4046 259.7093 15.08844593 30773","PERIOD":"95.437","EPHEMERIS_TYPE":"0"},{"COUNTRY_CODE":"US","LAUNCH_DATE":"2022-09-05","SEMIMAJOR_AXIS":"6917.876","RCS_SIZE":"LARGE","MEAN_MOTION":"15.08841537","INCLINATION":"53.2183","OBJECT_ID":"2022-107M","SITE":"AFETR","ELEMENT_SET_NO":"999","MEAN_MOTION_DDOT":"0.0000000000000","ECCENTRICITY":"0.00013330","CENTER_NAME":"EARTH","OBJECT_TYPE":"PAYLOAD","MEAN_ELEMENT_THEORY":"SGP4","TLE_LINE1":"1 53711U 22107M   23080.71705394  .00004640  00000-0  30944-3 0  9995","BSTAR":"0.00030944000000","RA_OF_ASC_NODE":"75.0707","PERIAPSIS":"538.819","EPOCH":"2023-03-21T17:12:33.460416","OBJECT_NAME":"STARLINK-4627","TIME_SYSTEM":"UTC","GP_ID":"228622446","REV_AT_EPOCH":"3083","MEAN_MOTION_DOT":"0.00004640","REF_FRAME":"TEME","FILE":"3866953","TLE_LINE2":"2 53711  53.2183  75.0707 0001333  70.2178 289.8957 15.08841537 30836","PERIOD":"95.437","EPHEMERIS_TYPE":"0","ARG_OF_PERICENTER":"70.2178","APOAPSIS":"540.663","NORAD_CAT_ID":"53711","CLASSIFICATION_TYPE":"U","MEAN_ANOMALY":"289.8957","DECAY_DATE":null}];
